start=new Date('2022-06-03T00:00:00.000Z').valueOf();
sats=[{"EPHEMERIS_TYPE":"0","SITE":"AFETR","FILE":"3477907","ELEMENT_SET_NO":"999","REV_AT_EPOCH":"3198","MEAN_MOTION":"15.08836829","GP_ID":"205188924","BSTAR":"0.00005181700000","MEAN_MOTION_DOT":"0.00000536","COUNTRY_CODE":"US","PERIOD":"95.438","INCLINATION":"53.2183","TLE_LINE1":"1 49430U 21104Y   22153.72899571  .00000536  00000-0  51817-4 0  9999","ECCENTRICITY":"0.00021530","MEAN_ANOMALY":"337.5754","CENTER_NAME":"EARTH","EPOCH":"2022-06-02T17:29:45.229344","NORAD_CAT_ID":"49430","TLE_LINE2":"2 49430  53.2183 286.0512 0002153  22.5333 337.5754 15.08836829 31982","REF_FRAME":"TEME","OBJECT_ID":"2021-104Y","RA_OF_ASC_NODE":"286.0512","OBJECT_NAME":"STARLINK-3138","LAUNCH_DATE":"2021-11-13","CLASSIFICATION_TYPE":"U","RCS_SIZE":"LARGE","SEMIMAJOR_AXIS":"6917.890","APOAPSIS":"541.245","PERIAPSIS":"538.266","TIME_SYSTEM":"UTC","DECAY_DATE":null,"OBJECT_TYPE":"PAYLOAD","MEAN_MOTION_DDOT":"0.0000000000000","ARG_OF_PERICENTER":"22.5333","MEAN_ELEMENT_THEORY":"SGP4"},{"NORAD_CAT_ID":"49431","TLE_LINE2":"2 49431  53.2178 285.9207 0002536  29.9078 330.2059 15.08835022 30912","RA_OF_ASC_NODE":"285.9207","OBJECT_NAME":"STARLINK-3153","OBJECT_ID":"2021-104Z","REF_FRAME":"TEME","ECCENTRICITY":"0.00025360","MEAN_ANOMALY":"330.2059","CENTER_NAME":"EARTH","EPOCH":"2022-06-02T18:08:13.934976","TIME_SYSTEM":"UTC","MEAN_MOTION_DDOT":"0.0000000000000","DECAY_DATE":null,"OBJECT_TYPE":"PAYLOAD","ARG_OF_PERICENTER":"29.9078","MEAN_ELEMENT_THEORY":"SGP4","APOAPSIS":"541.515","RCS_SIZE":"LARGE","LAUNCH_DATE":"2021-11-13","SEMIMAJOR_AXIS":"6917.896","CLASSIFICATION_TYPE":"U","PERIAPSIS":"538.006","REV_AT_EPOCH":"3091","FILE":"3477983","EPHEMERIS_TYPE":"0","SITE":"AFETR","ELEMENT_SET_NO":"999","COUNTRY_CODE":"US","PERIOD":"95.438","MEAN_MOTION_DOT":"-0.00001315","TLE_LINE1":"1 49431U 21104Z   22153.75571684 -.00001315  00000-0 -64512-4 0  9999","INCLINATION":"53.2178","GP_ID":"205212753","BSTAR":"-0.00006451200000","MEAN_MOTION":"15.08835022"},{"ELEMENT_SET_NO":"999","FILE":"3477983","SITE":"AFETR","EPHEMERIS_TYPE":"0","REV_AT_EPOCH":"3104","GP_ID":"205213505","BSTAR":"0.00002578400000","MEAN_MOTION":"15.08834984","TLE_LINE1":"1 49432U 21104AA  22153.69407548  .00000122  00000-0  25784-4 0  9991","INCLINATION":"53.2164","COUNTRY_CODE":"US","PERIOD":"95.438","MEAN_MOTION_DOT":"0.00000122","CENTER_NAME":"EARTH","EPOCH":"2022-06-02T16:39:28.121472","ECCENTRICITY":"0.00022810","MEAN_ANOMALY":"321.7804","RA_OF_ASC_NODE":"276.2156","OBJECT_NAME":"STARLINK-3158","REF_FRAME":"TEME","OBJECT_ID":"2021-104AA","NORAD_CAT_ID":"49432","TLE_LINE2":"2 49432  53.2164 276.2156 0002281  38.3350 321.7804 15.08834984 31042","PERIAPSIS":"538.183","APOAPSIS":"541.339","LAUNCH_DATE":"2021-11-13","CLASSIFICATION_TYPE":"U","RCS_SIZE":"LARGE","SEMIMAJOR_AXIS":"6917.896","DECAY_DATE":null,"OBJECT_TYPE":"PAYLOAD","MEAN_MOTION_DDOT":"0.0000000000000","ARG_OF_PERICENTER":"38.3350","MEAN_ELEMENT_THEORY":"SGP4","TIME_SYSTEM":"UTC"},{"TLE_LINE1":"1 49433U 21104AB  22153.69404177 -.00000922  00000-0 -39852-4 0  9998","INCLINATION":"53.2163","COUNTRY_CODE":"US","PERIOD":"95.438","MEAN_MOTION_DOT":"-0.00000922","BSTAR":"-0.00003985200000","GP_ID":"205213754","MEAN_MOTION":"15.08837144","REV_AT_EPOCH":"3227","ELEMENT_SET_NO":"999","FILE":"3477983","SITE":"AFETR","EPHEMERIS_TYPE":"0","MEAN_MOTION_DDOT":"0.0000000000000","DECAY_DATE":null,"OBJECT_TYPE":"PAYLOAD","MEAN_ELEMENT_THEORY":"SGP4","ARG_OF_PERICENTER":"42.7140","TIME_SYSTEM":"UTC","PERIAPSIS":"538.401","APOAPSIS":"541.107","LAUNCH_DATE":"2021-11-13","RCS_SIZE":"LARGE","SEMIMAJOR_AXIS":"6917.889","CLASSIFICATION_TYPE":"U","OBJECT_NAME":"STARLINK-3079","RA_OF_ASC_NODE":"266.2032","OBJECT_ID":"2021-104AB","REF_FRAME":"TEME","NORAD_CAT_ID":"49433","TLE_LINE2":"2 49433  53.2163 266.2032 0001956  42.7140 317.4004 15.08837144 32279","CENTER_NAME":"EARTH","EPOCH":"2022-06-02T16:39:25.208928","MEAN_ANOMALY":"317.4004","ECCENTRICITY":"0.00019560"},{"INCLINATION":"53.2179","TLE_LINE1":"1 49434U 21104AC  22153.79155068  .00000936  00000-0  76910-4 0  9991","MEAN_MOTION_DOT":"0.00000936","PERIOD":"95.438","COUNTRY_CODE":"US","MEAN_MOTION":"15.08836923","GP_ID":"205213004","BSTAR":"0.00007691000000","REV_AT_EPOCH":"3200","ELEMENT_SET_NO":"999","SITE":"AFETR","EPHEMERIS_TYPE":"0","FILE":"3477983","ARG_OF_PERICENTER":"31.7083","MEAN_ELEMENT_THEORY":"SGP4","OBJECT_TYPE":"PAYLOAD","DECAY_DATE":null,"MEAN_MOTION_DDOT":"0.0000000000000","TIME_SYSTEM":"UTC","PERIAPSIS":"538.052","LAUNCH_DATE":"2021-11-13","SEMIMAJOR_AXIS":"6917.890","RCS_SIZE":"LARGE","CLASSIFICATION_TYPE":"U","APOAPSIS":"541.458","OBJECT_ID":"2021-104AC","REF_FRAME":"TEME","OBJECT_NAME":"STARLINK-3134","RA_OF_ASC_NODE":"285.7756","NORAD_CAT_ID":"49434","TLE_LINE2":"2 49434  53.2179 285.7756 0002462  31.7083 328.4057 15.08836923 32008","EPOCH":"2022-06-02T18:59:49.978752","CENTER_NAME":"EARTH","MEAN_ANOMALY":"328.4057","ECCENTRICITY":"0.00024620"},{"MEAN_MOTION":"15.08836490","BSTAR":"0.00003807500000","GP_ID":"205213254","MEAN_MOTION_DOT":"0.00000318","COUNTRY_CODE":"US","PERIOD":"95.438","INCLINATION":"53.2172","TLE_LINE1":"1 49435U 21104AD  22153.69867707  .00000318  00000-0  38075-4 0  9995","EPHEMERIS_TYPE":"0","SITE":"AFETR","FILE":"3477983","ELEMENT_SET_NO":"999","REV_AT_EPOCH":"3118","SEMIMAJOR_AXIS":"6917.891","LAUNCH_DATE":"2021-11-13","RCS_SIZE":"LARGE","CLASSIFICATION_TYPE":"U","APOAPSIS":"541.056","PERIAPSIS":"538.456","TIME_SYSTEM":"UTC","OBJECT_TYPE":"PAYLOAD","DECAY_DATE":null,"MEAN_MOTION_DDOT":"0.0000000000000","ARG_OF_PERICENTER":"48.7571","MEAN_ELEMENT_THEORY":"SGP4","ECCENTRICITY":"0.00018790","MEAN_ANOMALY":"311.3583","CENTER_NAME":"EARTH","EPOCH":"2022-06-02T16:46:05.698848","TLE_LINE2":"2 49435  53.2172 266.1940 0001879  48.7571 311.3583 15.08836490 31183","NORAD_CAT_ID":"49435","REF_FRAME":"TEME","OBJECT_ID":"2021-104AD","RA_OF_ASC_NODE":"266.1940","OBJECT_NAME":"STARLINK-3117"},{"COUNTRY_CODE":"US","PERIOD":"95.438","MEAN_MOTION_DOT":"-0.00001240","TLE_LINE1":"1 49436U 21104AE  22153.69772512 -.00001240  00000-0 -59792-4 0  9991","INCLINATION":"53.2167","BSTAR":"-0.00005979200000","GP_ID":"205214006","MEAN_MOTION":"15.08834023","REV_AT_EPOCH":"3118","FILE":"3477983","SITE":"AFETR","EPHEMERIS_TYPE":"0","ELEMENT_SET_NO":"999","TIME_SYSTEM":"UTC","MEAN_MOTION_DDOT":"0.0000000000000","DECAY_DATE":null,"OBJECT_TYPE":"PAYLOAD","ARG_OF_PERICENTER":"45.2521","MEAN_ELEMENT_THEORY":"SGP4","APOAPSIS":"541.113","LAUNCH_DATE":"2021-11-13","RCS_SIZE":"LARGE","CLASSIFICATION_TYPE":"U","SEMIMAJOR_AXIS":"6917.899","PERIAPSIS":"538.414","TLE_LINE2":"2 49436  53.2167 266.1815 0001951  45.2521 314.8630 15.08834023 31188","NORAD_CAT_ID":"49436","OBJECT_NAME":"STARLINK-3049","RA_OF_ASC_NODE":"266.1815","OBJECT_ID":"2021-104AE","REF_FRAME":"TEME","MEAN_ANOMALY":"314.8630","ECCENTRICITY":"0.00019510","CENTER_NAME":"EARTH","EPOCH":"2022-06-02T16:44:43.450368"},{"EPOCH":"2022-06-02T19:44:53.692224","CENTER_NAME":"EARTH","ECCENTRICITY":"0.00024590","MEAN_ANOMALY":"317.2141","REF_FRAME":"TEME","OBJECT_ID":"2021-104AF","RA_OF_ASC_NODE":"265.6369","OBJECT_NAME":"STARLINK-3130","TLE_LINE2":"2 49437  53.2182 265.6369 0002459  42.9043 317.2141 15.08834442 31203","NORAD_CAT_ID":"49437","PERIAPSIS":"538.061","RCS_SIZE":"LARGE","LAUNCH_DATE":"2021-11-13","CLASSIFICATION_TYPE":"U","SEMIMAJOR_AXIS":"6917.897","APOAPSIS":"541.463","MEAN_ELEMENT_THEORY":"SGP4","ARG_OF_PERICENTER":"42.9043","DECAY_DATE":null,"MEAN_MOTION_DDOT":"0.0000000000000","OBJECT_TYPE":"PAYLOAD","TIME_SYSTEM":"UTC","ELEMENT_SET_NO":"999","EPHEMERIS_TYPE":"0","SITE":"AFETR","FILE":"3477983","REV_AT_EPOCH":"3120","MEAN_MOTION":"15.08834442","GP_ID":"205214255","BSTAR":"-0.00003215200000","INCLINATION":"53.2182","TLE_LINE1":"1 49437U 21104AF  22153.82284366 -.00000800  00000-0 -32152-4 0  9994","MEAN_MOTION_DOT":"-0.00000800","PERIOD":"95.438","COUNTRY_CODE":"US"},{"EPOCH":"2022-06-02T16:28:49.371456","CENTER_NAME":"EARTH","MEAN_ANOMALY":"319.2345","ECCENTRICITY":"0.00024040","REF_FRAME":"TEME","OBJECT_ID":"2021-104AG","RA_OF_ASC_NODE":"266.2488","OBJECT_NAME":"STARLINK-3044","TLE_LINE2":"2 49438  53.2185 266.2488 0002404  40.8828 319.2345 15.08824593 31185","NORAD_CAT_ID":"49438","PERIAPSIS":"538.129","RCS_SIZE":"LARGE","LAUNCH_DATE":"2021-11-13","SEMIMAJOR_AXIS":"6917.927","CLASSIFICATION_TYPE":"U","APOAPSIS":"541.456","ARG_OF_PERICENTER":"40.8828","MEAN_ELEMENT_THEORY":"SGP4","MEAN_MOTION_DDOT":"0.0000000000000","DECAY_DATE":null,"OBJECT_TYPE":"PAYLOAD","TIME_SYSTEM":"UTC","ELEMENT_SET_NO":"999","SITE":"AFETR","EPHEMERIS_TYPE":"0","FILE":"3477983","REV_AT_EPOCH":"3118","MEAN_MOTION":"15.08824593","BSTAR":"0.00003997700000","GP_ID":"205212504","INCLINATION":"53.2185","TLE_LINE1":"1 49438U 21104AG  22153.68668254  .00000348  00000-0  39977-4 0  9998","MEAN_MOTION_DOT":"0.00000348","PERIOD":"95.439","COUNTRY_CODE":"US"},{"TIME_SYSTEM":"UTC","DECAY_DATE":null,"OBJECT_TYPE":"PAYLOAD","MEAN_MOTION_DDOT":"0.0000000000000","MEAN_ELEMENT_THEORY":"SGP4","ARG_OF_PERICENTER":"29.2863","APOAPSIS":"541.423","SEMIMAJOR_AXIS":"6917.881","LAUNCH_DATE":"2021-11-13","RCS_SIZE":"LARGE","CLASSIFICATION_TYPE":"U","PERIAPSIS":"538.069","TLE_LINE2":"2 49439  53.2190 266.0237 0002424  29.2863 330.8264 15.08839843 31198","NORAD_CAT_ID":"49439","RA_OF_ASC_NODE":"266.0237","OBJECT_NAME":"STARLINK-3108","REF_FRAME":"TEME","OBJECT_ID":"2021-104AH","MEAN_ANOMALY":"330.8264","ECCENTRICITY":"0.00024240","CENTER_NAME":"EARTH","EPOCH":"2022-06-02T17:37:41.838528","COUNTRY_CODE":"US","PERIOD":"95.438","MEAN_MOTION_DOT":"-0.00001055","TLE_LINE1":"1 49439U 21104AH  22153.73451202 -.00001055  00000-0 -48157-4 0  9996","INCLINATION":"53.2190","GP_ID":"205212754","BSTAR":"-0.00004815700000","MEAN_MOTION":"15.08839843","REV_AT_EPOCH":"3119","FILE":"3477983","SITE":"AFETR","EPHEMERIS_TYPE":"0","ELEMENT_SET_NO":"999"}];
